STARLINK-5987           
1 56455U 23064H   23268.08200811 -.00000183  00000+0 -75192-5 0  9993
2 56455  70.0004 245.0863 0003029 266.6841  93.3972 14.98328848 21307
STARLINK-5995           
1 56456U 23064J   23268.09453102 -.00000380  00000+0 -24086-4 0  9992
2 56456  70.0004 245.1301 0003242 269.4998  90.5790 14.98328256 21307
STARLINK-5994           
1 56457U 23064K   23267.89007419  .00000822  00000+0  76664-4 0  9994
2 56457  69.9998 245.6208 0003272 270.4479  89.6305 14.98324663 20912
STARLINK-6050           
1 56458U 23064L   23268.09870625 -.00000734  00000+0 -53754-4 0  9994
2 56458  69.9997 245.1444 0003309 268.4351  91.6429 14.98326125 21305
STARLINK-6048           
1 56459U 23064M   23268.13624879  .00002797  00000+0  24224-3 0  9996
2 56459  70.0012 244.8736 0003179 263.4808  96.5989 14.98315133 21317
STARLINK-6047           
1 56460U 23064N   23268.07783354 -.00000201  00000+0 -90673-5 0  9998
2 56460  70.0005 245.0713 0003098 269.7834  90.2970 14.98330900 21306
STARLINK-6037           
1 56461U 23064P   23267.92763380  .00000458  00000+0  46246-4 0  9997
2 56461  70.0023 245.3492 0003726 270.4415  89.6317 14.98291243 20926
STARLINK-6045           
1 56462U 23064Q   23267.93545527  .00000831  00000+0  86815-5 0  9992
2 56462  69.9984 218.9293 0003684 273.0528  87.0246 15.69926883 21571
STARLINK-6051           
1 56463U 23064R   23267.35383608  .00000823  00000+0  79918-4 0  9995
2 56463  69.9999 246.9545 0003462 265.6392  94.4371 14.96714909 20831
STARLINK-6043           
1 56464U 23064S   23268.07365869 -.00000211  00000+0 -98878-5 0  9995
2 56464  70.0009 245.0558 0003505 269.1137  90.9620 14.98329744 21307
STARLINK-6054           
1 56465U 23064T   23267.89420010  .00002686  00000+0  24099-4 0  9994
2 56465  70.0000 218.7777 0003809 276.4096  83.6666 15.69929289 21578
STARLINK-6053           
1 56466U 23064U   23268.13208480 -.00000592  00000+0 -41856-4 0  9994
2 56466  70.0007 244.8587 0003252 266.7264  93.3523 14.98323080 21316
STARLINK-6055           
1 56467U 23064V   23268.25001157 -.00018186  00000+0 -14820-2 0  9997
2 56467  69.9999 224.8810 0003250 272.1910 197.3857 14.99312173 21810
STARLINK-5998           
1 56468U 23064W   23268.12372130  .00000754  00000+0  70969-4 0  9994
2 56468  69.9999 244.8297 0003863 266.3113  93.7604 14.98332863 21313
STARLINK-5518           
1 56469U 23064X   23268.25001157 -.00012595  00000+0 -10234-2 0  9992
2 56469  70.0001 224.9599 0003323 272.7632 126.3510 14.99303563 21813
STARLINK-5523           
1 56470U 23064Y   23268.25001157 -.00027326  00000+0 -22325-2 0  9996
2 56470  70.0000 224.9072 0002869 274.9748 171.2593 14.99330939 21813
STARLINK-5521           
1 56471U 23064Z   23268.25001157 -.00041406  00000+0 -33938-2 0  9994
2 56471  69.9996 224.8355 0003218 271.6554 238.4586 14.99327061 21816
STARLINK-5038           
1 56472U 23064AA  23268.25001157 -.00025338  00000+0 -20699-2 0  9991
2 56472  69.9998 224.8544 0002939 272.5560 220.8027 14.99313378 21816
STARLINK-5486           
1 56473U 23064AB  23267.91667824 -.00000704  00000+0 -49851-4 0  9996
2 56473  70.0001 225.6101 0003021 275.2817 300.8912 14.99300989  5943
STARLINK-5524           
1 56474U 23064AC  23267.91667824  .00009477  00000+0  78099-3 0  9996
2 56474  70.0002 225.7751 0003082 267.7417 156.3668 14.99307579  5838
STARLINK-5541           
1 56475U 23064AD  23267.91667824  .00012886  00000+0  10587-2 0  9992
2 56475  69.9984 225.5387 0002729 255.6345  19.6683 14.99307492 21763
STARLINK-5545           
1 56476U 23064AE  23268.25001157 -.00026245  00000+0 -21446-2 0  9994
2 56476  70.0000 224.8021 0003169 270.4536 269.8018 14.99312012 21810
STARLINK-5534           
1 56477U 23064AF  23267.91667824  .00009924  00000+0  81726-3 0  9997
2 56477  69.9999 225.5121 0003093 269.3684  29.8081 14.99313986  5739
STARLINK-6041           
1 56478U 23064AG  23268.25001157 -.00020085  00000+0 -16382-2 0  9995
2 56478  70.0000 224.7461 0003327 272.7457 317.5565 14.99307135 21810
STARLINK-6044           
1 56479U 23064AH  23268.25001157  .00042323  00000+0  34479-2 0  9990
2 56479  69.9999 224.5704 0003120 272.3438 114.6088 14.99276644 21826
STARLINK-6214           
1 56480U 23064AJ  23268.25001157 -.00023772  00000+0 -19410-2 0  9999
2 56480  70.0001 224.7754 0003030 273.9342 290.2165 14.99314009 21817
STARLINK-6222           
1 56481U 23064AK  23267.91667824  .00012714  00000+0  10446-2 0  9993
2 56481  70.0000 225.4671 0002882 263.3693  75.9655 14.99311151  5896
STARLINK-6220           
1 56482U 23064AL  23267.91667824  .00010547  00000+0  86810-3 0  9995
2 56482  69.9993 225.5513 0003184 267.0507 357.1781 14.99311592  5896
STARLINK-5868           
1 56483U 23064AM  23268.25001157  .00019723  00000+0  16157-2 0  9996
2 56483  69.9989 224.5445 0002933 273.3553 136.6182 14.99283676 21824
STARLINK-6221           
1 56484U 23064AN  23267.91667824  .00008808  00000+0  72643-3 0  9993
2 56484  69.9993 225.4824 0002791 259.1633  66.5255 14.99311453  5890
STARLINK-6210           
1 56485U 23064AP  23268.25001157  .00009877  00000+0  83461-3 0  9990
2 56485  69.9984 224.5165 0003089 271.8583 162.9900 14.98322046 21823
STARLINK-6201           
1 56486U 23064AQ  23267.91667824  .00011290  00000+0  92872-3 0  9990
2 56486  69.9995 225.4382 0002921 264.7046 100.4892 14.99306801  5580
STARLINK-6196           
1 56487U 23064AR  23267.95927790 -.00000273  00000+0 -49870-6 0  9990
2 56487  69.9983 219.4467 0003491 267.8927  92.1869 15.69929352 21916
STARLINK-6204           
1 56488U 23064AS  23268.02320099  .00013953  00000+0  11745-3 0  9993
2 56488  70.0009 219.2680 0003495 270.2629  89.8166 15.69958061 21928
STARLINK-5923           
1 56489U 23064AT  23268.02289074 -.00002165  00000+0 -16250-4 0  9993
2 56489  70.0003 219.2662 0003517 266.3502  93.7292 15.69914433 21923
STARLINK-5873           
1 56490U 23064AU  23268.02311854 -.00004360  00000+0 -34554-4 0  9993
2 56490  70.0013 219.2667 0002705 239.0027 121.0904 15.69897312 21929
STARLINK-5842           
1 56491U 23064AV  23268.02278113  .00001026  00000+0  10298-4 0  9997
2 56491  69.9992 219.2674 0003575 267.4638  92.6148 15.69923184 21920
STARLINK-5846           
1 56492U 23064AW  23268.02258445  .00000772  00000+0  81988-5 0  9996
2 56492  69.9995 219.2653 0004464 289.3899  70.6814 15.69907764 21923
STARLINK-5841           
1 56493U 23064AX  23268.02203726 -.00006270  00000+0 -50390-4 0  9992
2 56493  70.0007 219.2628 0003111 266.2457  93.8382 15.69938633 21921
STARLINK-5530           
1 56494U 23064AY  23268.02268107 -.00000288  00000+0 -62400-6 0  9997
2 56494  70.0004 219.2661 0003820 275.6432  84.4328 15.69916697 21922
STARLINK-5529           
1 56495U 23064AZ  23268.02235666  .00001044  00000+0  10449-4 0  9995
2 56495  70.0011 219.2648 0003377 267.0444  93.0366 15.69929352 21921
STARLINK-5526           
1 56496U 23064BA  23267.95853524  .00001395  00000+0  13371-4 0  9992
2 56496  69.9994 219.4435 0003692 267.4891  92.5882 15.69928033 21916
STARLINK-5527           
1 56497U 23064BB  23268.02214683  .00001727  00000+0  16126-4 0  9999
2 56497  69.9996 219.2640 0003434 267.1173  92.9630 15.69928016 21926
STARLINK-5522           
1 56498U 23064BC  23268.02247492 -.00000506  00000+0 -24371-5 0  9992
2 56498  69.9986 219.2651 0004385 284.6228  75.4481 15.69915685 21927
STARLINK-5775           
1 56503U 23065A   23267.59261666 -.00000509  00000+0 -22576-4 0  9997
2 56503  43.0039  45.2930 0001090 276.8002  83.2716 15.02536699 21677
STARLINK-5716           
1 56504U 23065B   23267.78871569 -.00000704  00000+0 -37070-4 0  9990
2 56504  43.0048  44.1819 0001344 271.5395  88.5294 15.02544154 21709
STARLINK-5763           
1 56505U 23065C   23267.78650274 -.00001087  00000+0 -65373-4 0  9991
2 56505  43.0031  44.1708 0001377 324.2436  35.8314 15.02540455 21705
STARLINK-5340           
1 56506U 23065D   23267.72804604 -.00000895  00000+0 -51186-4 0  9997
2 56506  43.0040  31.5759 0000985 288.0592  72.0143 15.02544738 21842
STARLINK-5333           
1 56507U 23065E   23268.25001157 -.00911621  00000+0 -53741-1 0  9993
2 56507  43.0012   3.2633 0001361 280.1666 153.7450 15.13689273 21432
STARLINK-5335           
1 56508U 23065F   23267.84964078  .00000541  00000+0  55127-4 0  9999
2 56508  43.0035  43.7795 0001012 273.1785  86.8941 15.02546342 20935
STARLINK-5334           
1 56509U 23065G   23267.84187158 -.00002339  00000+0 -15804-3 0  9992
2 56509  43.0046  43.7196 0001193 279.7802  80.2906 15.02553788 20936
STARLINK-5339           
1 56510U 23065H   23267.84742278  .00000880  00000+0  80180-4 0  9991
2 56510  43.0038  43.7627 0001190 276.7302  83.3405 15.02540624 21717
STARLINK-5351           
1 56511U 23065J   23267.84075796  .00000333  00000+0  39711-4 0  9993
2 56511  43.0047  43.7106 0001166 277.5863  82.4847 15.02550489 20937
STARLINK-5349           
1 56512U 23065K   23267.84409513 -.00000410  00000+0 -15244-4 0  9995
2 56512  43.0042  43.7374 0001347 279.5762  80.4928 15.02544175 21711
STARLINK-5329           
1 56513U 23065L   23267.76873933 -.00000282  00000+0 -58207-5 0  9992
2 56513  43.0032  44.0285 0001034 277.1793  82.8932 15.02540952 21706
STARLINK-5348           
1 56515U 23065N   23267.36765726  .00000209  00000+0  30555-4 0  9992
2 56515  43.0012  46.1788 0000028 110.0430 250.0415 15.02533198 21644
STARLINK-5342           
1 56516U 23065P   23268.10446333 -.00000498  00000+0 -21776-4 0  9993
2 56516  43.0020  42.2484 0000710 255.8741 104.2022 15.02530562 20976
STARLINK-5345           
1 56517U 23065Q   23268.09003105 -.00000628  00000+0 -31412-4 0  9991
2 56517  43.0047  42.1382 0001403 271.2752  88.7929 15.02537632 20973
STARLINK-5346           
1 56518U 23065R   23267.76319416 -.00001421  00000+0 -90121-4 0  9994
2 56518  43.0045  43.9884 0001066 296.5170  63.5563 15.02539063 21704
